{"type":"FeatureCollection","features":[{"type":"Feature","properties":{"id":"node/7942711901","name":"东莞火车站","kind":"station"},"geometry":{"type":"Point","coordinates":[113.85572,23.09144]}},{"type":"Feature","properties":{"id":"node/9439672135","name":"临平南高铁站","kind":"station"},"geometry":{"type":"Point","coordinates":[120.29332,30.38447]}},{"type":"Feature","properties":{"id":"node/11163093700","name":"北城高铁站","kind":"station"},"geometry":{"type":"Point","coordinates":[117.25083,32.06478]}},{"type":"Feature","properties":{"id":"node/9776763669","name":"南平市高铁站","kind":"station"},"geometry":{"type":"Point","coordinates":[118.08611,27.4761]}},{"type":"Feature","properties":{"id":"node/2375669728","name":"南昌火车站","kind":"station"},"geometry":{"type":"Point","coordinates":[115.91656,28.66662]}},{"type":"Feature","properties":{"id":"node/4583028884","name":"昆明南火车站","kind":"station"},"geometry":{"type":"Point","coordinates":[102.8594,24.87308]}},{"type":"Feature","properties":{"id":"node/4460193672","name":"虹桥火车站","kind":"station"},"geometry":{"type":"Point","coordinates":[121.31373,31.196]}},{"type":"Feature","properties":{"id":"node/2716417212","name":"高铁苏州北站","kind":"station"},"geometry":{"type":"Point","coordinates":[120.64062,31.42363]}},{"type":"Feature","properties":{"id":"node/6429675873","name":"东亭站","kind":"station"},"geometry":{"type":"Point","coordinates":[120.35892,31.58391]}},{"type":"Feature","properties":{"id":"node/12290352422","name":"东城南站","kind":"station"},"geometry":{"type":"Point","coordinates":[113.7702,22.98931]}},{"type":"Feature","properties":{"id":"node/12290352338","name":"东莞西站","kind":"station"},"geometry":{"type":"Point","coordinates":[113.6225,23.01246]}},{"type":"Feature","properties":{"id":"node/7924846981","name":"东部汽车站","kind":"station"},"geometry":{"type":"Point","coordinates":[102.78716,25.03912]}},{"type":"Feature","properties":{"id":"node/12134745606","name":"佛山西站","kind":"station"},"geometry":{"type":"Point","coordinates":[113.02807,23.08239]}},{"type":"Feature","properties":{"id":"node/5158580594","name":"北京南站","kind":"station"},"geometry":{"type":"Point","coordinates":[116.37275,39.86355]}},{"type":"Feature","properties":{"id":"node/4846712797","name":"北京站","kind":"station"},"geometry":{"type":"Point","coordinates":[116.42095,39.9036]}},{"type":"Feature","properties":{"id":"node/5463450278","name":"北京西站","kind":"station"},"geometry":{"type":"Point","coordinates":[116.31511,39.89354]}},{"type":"Feature","properties":{"id":"node/6497814374","name":"北宫门站","kind":"station"},"geometry":{"type":"Point","coordinates":[116.27137,40.00119]}},{"type":"Feature","properties":{"id":"node/10290250426","name":"北滘西站","kind":"station"},"geometry":{"type":"Point","coordinates":[113.17278,22.95476]}},{"type":"Feature","properties":{"id":"node/13536003408","name":"北部汽车站","kind":"station"},"geometry":{"type":"Point","coordinates":[102.7619,25.11013]}},{"type":"Feature","properties":{"id":"node/9569942166","name":"南京北站","kind":"station"},"geometry":{"type":"Point","coordinates":[118.65784,32.16829]}},{"type":"Feature","properties":{"id":"node/9164163258","name":"南京南站","kind":"station"},"geometry":{"type":"Point","coordinates":[118.79159,31.97302]}},{"type":"Feature","properties":{"id":"node/9164163240","name":"南京站","kind":"station"},"geometry":{"type":"Point","coordinates":[118.79141,32.08906]}},{"type":"Feature","properties":{"id":"node/13059454870","name":"南京西站","kind":"station"},"geometry":{"type":"Point","coordinates":[118.73629,32.09818]}},{"type":"Feature","properties":{"id":"node/12953496169","name":"南昌东站","kind":"station"},"geometry":{"type":"Point","coordinates":[116.01307,28.61764]}},{"type":"Feature","properties":{"id":"node/2375668088","name":"南昌西站","kind":"station"},"geometry":{"type":"Point","coordinates":[115.78819,28.62664]}},{"type":"Feature","properties":{"id":"node/6424787055","name":"南湖家园站","kind":"station"},"geometry":{"type":"Point","coordinates":[120.31948,31.51172]}},{"type":"Feature","properties":{"id":"node/6427271124","name":"南禅寺站","kind":"station"},"geometry":{"type":"Point","coordinates":[120.30197,31.56882]}},{"type":"Feature","properties":{"id":"node/5504439167","name":"南通东站","kind":"station"},"geometry":{"type":"Point","coordinates":[120.94979,32.00033]}},{"type":"Feature","properties":{"id":"node/5504439153","name":"南通火车站 (暂不开放)","kind":"station"},"geometry":{"type":"Point","coordinates":[120.85453,32.07346]}},{"type":"Feature","properties":{"id":"node/4927734962","name":"南通西站","kind":"station"},"geometry":{"type":"Point","coordinates":[120.76108,32.10362]}},{"type":"Feature","properties":{"id":"node/13536002218","name":"南部汽车站","kind":"station"},"geometry":{"type":"Point","coordinates":[102.77366,24.93224]}},{"type":"Feature","properties":{"id":"node/9898804813","name":"厦大南门站","kind":"station"},"geometry":{"type":"Point","coordinates":[118.08735,24.43804]}},{"type":"Feature","properties":{"id":"node/4525554463","name":"厦门北站","kind":"station"},"geometry":{"type":"Point","coordinates":[118.06832,24.64002]}},{"type":"Feature","properties":{"id":"node/9546933759","name":"双流西站","kind":"station"},"geometry":{"type":"Point","coordinates":[103.91491,30.54592]}},{"type":"Feature","properties":{"id":"node/5155007133","name":"台州汽车南站","kind":"station"},"geometry":{"type":"Point","coordinates":[121.32468,28.57213]}},{"type":"Feature","properties":{"id":"node/7284562662","name":"合肥南站","kind":"station"},"geometry":{"type":"Point","coordinates":[117.2846,31.80218]}},{"type":"Feature","properties":{"id":"node/9295585087","name":"合肥西站","kind":"station"},"geometry":{"type":"Point","coordinates":[117.23121,31.87294]}},{"type":"Feature","properties":{"id":"node/6040115729","name":"呼和浩特东站","kind":"station"},"geometry":{"type":"Point","coordinates":[111.75976,40.84589]}},{"type":"Feature","properties":{"id":"node/11481034180","name":"和慧南路站","kind":"station"},"geometry":{"type":"Point","coordinates":[117.35139,38.98042]}},{"type":"Feature","properties":{"id":"node/11207125789","name":"咸阳西站","kind":"station"},"geometry":{"type":"Point","coordinates":[108.65807,34.3353]}},{"type":"Feature","properties":{"id":"node/9238112434","name":"哈尔滨东站","kind":"station"},"geometry":{"type":"Point","coordinates":[126.70292,45.78742]}},{"type":"Feature","properties":{"id":"node/8416679086","name":"哈尔滨北站","kind":"station"},"geometry":{"type":"Point","coordinates":[126.53171,45.85046]}},{"type":"Feature","properties":{"id":"node/2538010641","name":"哈尔滨南站","kind":"station"},"geometry":{"type":"Point","coordinates":[126.61592,45.66782]}},{"type":"Feature","properties":{"id":"node/12756561968","name":"哈尔滨西站","kind":"station"},"geometry":{"type":"Point","coordinates":[126.57446,45.70383]}},{"type":"Feature","properties":{"id":"node/4018278925","name":"埌东客运站","kind":"station"},"geometry":{"type":"Point","coordinates":[108.41457,22.81559]}},{"type":"Feature","properties":{"id":"node/13721670670","name":"大丰南站","kind":"station"},"geometry":{"type":"Point","coordinates":[120.44089,33.14884]}},{"type":"Feature","properties":{"id":"node/9006301318","name":"大连北站","kind":"station"},"geometry":{"type":"Point","coordinates":[121.60282,39.01401]}},{"type":"Feature","properties":{"id":"node/12603838360","name":"太原南站","kind":"station"},"geometry":{"type":"Point","coordinates":[112.60577,37.79166]}},{"type":"Feature","properties":{"id":"node/6838446693","name":"客运北站","kind":"station"},"geometry":{"type":"Point","coordinates":[117.1826,34.33298]}},{"type":"Feature","properties":{"id":"node/12215523698","name":"常州北站","kind":"station"},"geometry":{"type":"Point","coordinates":[119.95112,31.85694]}},{"type":"Feature","properties":{"id":"node/6124976548","name":"广安南站","kind":"station"},"geometry":{"type":"Point","coordinates":[106.59039,30.45719]}},{"type":"Feature","properties":{"id":"node/9179167270","name":"广州东站","kind":"station"},"geometry":{"type":"Point","coordinates":[113.31946,23.15253]}},{"type":"Feature","properties":{"id":"node/8166673845","name":"广州北站","kind":"station"},"geometry":{"type":"Point","coordinates":[113.19624,23.37896]}},{"type":"Feature","properties":{"id":"node/9625872463","name":"广州南站","kind":"station"},"geometry":{"type":"Point","coordinates":[113.26677,22.99164]}},{"type":"Feature","properties":{"id":"node/8270403720","name":"徐州东站","kind":"station"},"geometry":{"type":"Point","coordinates":[117.30184,34.26958]}},{"type":"Feature","properties":{"id":"node/5616916019","name":"成都东客站","kind":"station"},"geometry":{"type":"Point","coordinates":[104.13717,30.63176]}},{"type":"Feature","properties":{"id":"node/4064178132","name":"成都西站","kind":"station"},"geometry":{"type":"Point","coordinates":[103.97329,30.68638]}},{"type":"Feature","properties":{"id":"node/7930649661","name":"梨双路北站","kind":"station"},"geometry":{"type":"Point","coordinates":[117.32759,39.05017]}},{"type":"Feature","properties":{"id":"node/6525493304","name":"武汉东站","kind":"station"},"geometry":{"type":"Point","coordinates":[114.42616,30.48925]}},{"type":"Feature","properties":{"id":"node/6424746184","name":"江南大学站","kind":"station"},"geometry":{"type":"Point","coordinates":[120.27407,31.48568]}},{"type":"Feature","properties":{"id":"node/9299742092","name":"江南客运站","kind":"station"},"geometry":{"type":"Point","coordinates":[108.30814,22.76931]}},{"type":"Feature","properties":{"id":"node/5504439164","name":"汽车东站","kind":"station"},"geometry":{"type":"Point","coordinates":[120.91429,32.00368]}},{"type":"Feature","properties":{"id":"node/9480320027","name":"汽车南站","kind":"station"},"geometry":{"type":"Point","coordinates":[117.21867,34.22433]}},{"type":"Feature","properties":{"id":"node/3634890899","name":"汽车西站","kind":"station"},"geometry":{"type":"Point","coordinates":[117.13075,31.85294]}},{"type":"Feature","properties":{"id":"node/11224161741","name":"沈阳北站","kind":"station"},"geometry":{"type":"Point","coordinates":[123.43111,41.81446]}},{"type":"Feature","properties":{"id":"node/11224048728","name":"沈阳南站","kind":"station"},"geometry":{"type":"Point","coordinates":[123.4034,41.66589]}},{"type":"Feature","properties":{"id":"node/12472082385","name":"洪泥河东站","kind":"station"},"geometry":{"type":"Point","coordinates":[117.3384,39.04656]}},{"type":"Feature","properties":{"id":"node/9165248370","name":"济南东站","kind":"station"},"geometry":{"type":"Point","coordinates":[117.15365,36.74567]}},{"type":"Feature","properties":{"id":"node/5214753198","name":"深圳北站","kind":"station"},"geometry":{"type":"Point","coordinates":[114.02523,22.61314]}},{"type":"Feature","properties":{"id":"node/11016535640","name":"湘潭北站","kind":"station"},"geometry":{"type":"Point","coordinates":[112.93784,27.96695]}},{"type":"Feature","properties":{"id":"node/13461612560","name":"滨海西站","kind":"station"},"geometry":{"type":"Point","coordinates":[117.60445,39.08039]}},{"type":"Feature","properties":{"id":"node/7870753998","name":"火车东站","kind":"station"},"geometry":{"type":"Point","coordinates":[108.40991,22.84216]}},{"type":"Feature","properties":{"id":"node/2845408107","name":"火车北站","kind":"station"},"geometry":{"type":"Point","coordinates":[102.71922,25.0601]}},{"type":"Feature","properties":{"id":"node/9584937425","name":"火车南站","kind":"station"},"geometry":{"type":"Point","coordinates":[120.29266,30.17507]}},{"type":"Feature","properties":{"id":"node/9866117271","name":"火车西站","kind":"station"},"geometry":{"type":"Point","coordinates":[119.98189,30.3005]}},{"type":"Feature","properties":{"id":"node/4939314560","name":"石家庄东站","kind":"station"},"geometry":{"type":"Point","coordinates":[114.62337,38.04934]}},{"type":"Feature","properties":{"id":"node/13645214931","name":"砚北站","kind":"station"},"geometry":{"type":"Point","coordinates":[106.67447,35.21967]}},{"type":"Feature","properties":{"id":"node/7076314532","name":"福州火车南站","kind":"station"},"geometry":{"type":"Point","coordinates":[119.38565,25.98874]}},{"type":"Feature","properties":{"id":"node/12966377073","name":"绍兴北站","kind":"station"},"geometry":{"type":"Point","coordinates":[120.53198,30.10136]}},{"type":"Feature","properties":{"id":"node/9938215064","name":"肥东站","kind":"station"},"geometry":{"type":"Point","coordinates":[117.48035,31.86136]}},{"type":"Feature","properties":{"id":"node/8253269139","name":"胶州北站","kind":"station"},"geometry":{"type":"Point","coordinates":[120.04986,36.39478]}},{"type":"Feature","properties":{"id":"node/9234794110","name":"芜湖南站","kind":"station"},"geometry":{"type":"Point","coordinates":[118.37329,31.25265]}},{"type":"Feature","properties":{"id":"node/11434807658","name":"花溪南站","kind":"station"},"geometry":{"type":"Point","coordinates":[106.67245,26.40567]}},{"type":"Feature","properties":{"id":"node/12326998463","name":"苏州南站","kind":"station"},"geometry":{"type":"Point","coordinates":[120.79478,31.06555]}},{"type":"Feature","properties":{"id":"node/11127372007","name":"葛店南站","kind":"station"},"geometry":{"type":"Point","coordinates":[114.65513,30.49218]}},{"type":"Feature","properties":{"id":"node/6035138191","name":"蒙自北站","kind":"station"},"geometry":{"type":"Point","coordinates":[103.29998,23.46855]}},{"type":"Feature","properties":{"id":"node/9831083408","name":"衙门口东站","kind":"station"},"geometry":{"type":"Point","coordinates":[116.21427,39.89491]}},{"type":"Feature","properties":{"id":"node/5211363683","name":"西乡塘客运站","kind":"station"},"geometry":{"type":"Point","coordinates":[108.21489,22.83572]}},{"type":"Feature","properties":{"id":"node/11168933760","name":"西安东站","kind":"station"},"geometry":{"type":"Point","coordinates":[109.05656,34.21538]}},{"type":"Feature","properties":{"id":"node/9452865058","name":"西安北站","kind":"station"},"geometry":{"type":"Point","coordinates":[108.93412,34.38102]}},{"type":"Feature","properties":{"id":"node/11427944203","name":"西安南站","kind":"station"},"geometry":{"type":"Point","coordinates":[108.81128,34.12277]}},{"type":"Feature","properties":{"id":"node/11217698292","name":"西安站","kind":"station"},"geometry":{"type":"Point","coordinates":[108.9609,34.27983]}},{"type":"Feature","properties":{"id":"node/12603758576","name":"西客站","kind":"station"},"geometry":{"type":"Point","coordinates":[112.46641,37.85629]}},{"type":"Feature","properties":{"id":"node/6427480368","name":"西漳站","kind":"station"},"geometry":{"type":"Point","coordinates":[120.29906,31.64771]}},{"type":"Feature","properties":{"id":"node/2824223999","name":"西部汽车站","kind":"station"},"geometry":{"type":"Point","coordinates":[102.63766,25.03876]}},{"type":"Feature","properties":{"id":"node/11533032445","name":"许昌东站","kind":"station"},"geometry":{"type":"Point","coordinates":[113.87971,34.04958]}},{"type":"Feature","properties":{"id":"node/11434697422","name":"贵阳北站","kind":"station"},"geometry":{"type":"Point","coordinates":[106.67239,26.62275]}},{"type":"Feature","properties":{"id":"node/11942182956","name":"资阳北站","kind":"station"},"geometry":{"type":"Point","coordinates":[104.67857,30.12947]}},{"type":"Feature","properties":{"id":"node/5926793058","name":"郑州东站","kind":"station"},"geometry":{"type":"Point","coordinates":[113.77002,34.76009]}},{"type":"Feature","properties":{"id":"node/11311342525","name":"郑州西站","kind":"station"},"geometry":{"type":"Point","coordinates":[113.4213,34.75086]}},{"type":"Feature","properties":{"id":"node/10770007980","name":"重庆东站","kind":"station"},"geometry":{"type":"Point","coordinates":[106.66741,29.4879]}},{"type":"Feature","properties":{"id":"node/9466211968","name":"重庆西站","kind":"station"},"geometry":{"type":"Point","coordinates":[106.4355,29.50272]}},{"type":"Feature","properties":{"id":"node/13595801224","name":"金华南站","kind":"station"},"geometry":{"type":"Point","coordinates":[119.73212,29.11752]}},{"type":"Feature","properties":{"id":"node/6427490830","name":"锡北运河站","kind":"station"},"geometry":{"type":"Point","coordinates":[120.31028,31.66417]}},{"type":"Feature","properties":{"id":"node/6520538355","name":"长春西站","kind":"station"},"geometry":{"type":"Point","coordinates":[125.19502,43.8741]}},{"type":"Feature","properties":{"id":"node/11097392477","name":"长沙火车南站","kind":"station"},"geometry":{"type":"Point","coordinates":[113.05897,28.15008]}},{"type":"Feature","properties":{"id":"node/10955936165","name":"雁矿西站","kind":"station"},"geometry":{"type":"Point","coordinates":[120.2661,49.15209]}},{"type":"Feature","properties":{"id":"node/13388818181","name":"青医东院站","kind":"station"},"geometry":{"type":"Point","coordinates":[120.45332,36.10063]}},{"type":"Feature","properties":{"id":"node/5303810100","name":"青岛北站","kind":"station"},"geometry":{"type":"Point","coordinates":[120.37198,36.16948]}},{"type":"Feature","properties":{"id":"node/13380191077","name":"龙泉驿火车站南","kind":"station"},"geometry":{"type":"Point","coordinates":[104.1941,30.5957]}},{"type":"Feature","properties":{"id":"node/7702323725","name":"义乌高铁站","kind":"station"},"geometry":{"type":"Point","coordinates":[120.03922,29.38063]}},{"type":"Feature","properties":{"id":"node/8073260829","name":"亦庄火车站","kind":"station"},"geometry":{"type":"Point","coordinates":[116.59608,39.81157]}},{"type":"Feature","properties":{"id":"node/10937090905","name":"兰州火车站","kind":"station"},"geometry":{"type":"Point","coordinates":[103.85076,36.03626]}},{"type":"Feature","properties":{"id":"node/12056554197","name":"北站","kind":"station"},"geometry":{"type":"Point","coordinates":[117.20149,39.16559]}},{"type":"Feature","properties":{"id":"node/8914062522","name":"南站","kind":"station"},"geometry":{"type":"Point","coordinates":[117.05572,39.0559]}},{"type":"Feature","properties":{"id":"node/8829523163","name":"厦门火车站","kind":"station"},"geometry":{"type":"Point","coordinates":[118.10934,24.47213]}},{"type":"Feature","properties":{"id":"node/10120263938","name":"台州火车站","kind":"station"},"geometry":{"type":"Point","coordinates":[121.36898,28.6559]}},{"type":"Feature","properties":{"id":"node/3634890874","name":"合肥火车站","kind":"station"},"geometry":{"type":"Point","coordinates":[117.3098,31.88532]}},{"type":"Feature","properties":{"id":"node/13228555018","name":"圣都火车站","kind":"station"},"geometry":{"type":"Point","coordinates":[109.74049,38.27519]}},{"type":"Feature","properties":{"id":"node/10291175745","name":"坪山高铁站","kind":"station"},"geometry":{"type":"Point","coordinates":[114.32278,22.70833]}},{"type":"Feature","properties":{"id":"node/12597897574","name":"宁波火车站","kind":"station"},"geometry":{"type":"Point","coordinates":[121.53291,29.86447]}},{"type":"Feature","properties":{"id":"node/9220578094","name":"广州火车站","kind":"station"},"geometry":{"type":"Point","coordinates":[113.25196,23.15057]}},{"type":"Feature","properties":{"id":"node/9863373266","name":"庄桥火车站","kind":"station"},"geometry":{"type":"Point","coordinates":[121.52906,29.92446]}},{"type":"Feature","properties":{"id":"node/8908203795","name":"徐州火车站","kind":"station"},"geometry":{"type":"Point","coordinates":[117.19833,34.26763]}},{"type":"Feature","properties":{"id":"node/12597662347","name":"慈溪高铁站","kind":"station"},"geometry":{"type":"Point","coordinates":[121.25897,30.23989]}},{"type":"Feature","properties":{"id":"node/6427381099","name":"无锡火车站","kind":"station"},"geometry":{"type":"Point","coordinates":[120.30213,31.59072]}},{"type":"Feature","properties":{"id":"node/13536002363","name":"昆明火车站","kind":"station"},"geometry":{"type":"Point","coordinates":[102.7217,25.01644]}},{"type":"Feature","properties":{"id":"node/13228536617","name":"榆溪火车站","kind":"station"},"geometry":{"type":"Point","coordinates":[109.74657,38.27241]}},{"type":"Feature","properties":{"id":"node/7702313756","name":"横店高铁站","kind":"station"},"geometry":{"type":"Point","coordinates":[120.25969,29.21638]}},{"type":"Feature","properties":{"id":"node/2134350580","name":"武昌火车站","kind":"station"},"geometry":{"type":"Point","coordinates":[114.31108,30.5332]}},{"type":"Feature","properties":{"id":"node/9606058625","name":"武汉火车站","kind":"station"},"geometry":{"type":"Point","coordinates":[114.41915,30.60962]}},{"type":"Feature","properties":{"id":"node/11313894966","name":"汉口火车站","kind":"station"},"geometry":{"type":"Point","coordinates":[114.24965,30.61822]}},{"type":"Feature","properties":{"id":"node/5227950223","name":"汉阳火车站","kind":"station"},"geometry":{"type":"Point","coordinates":[114.24747,30.55418]}},{"type":"Feature","properties":{"id":"node/11545949017","name":"江阴高铁站","kind":"station"},"geometry":{"type":"Point","coordinates":[120.27442,31.86415]}},{"type":"Feature","properties":{"id":"node/9365041258","name":"洛阳火车站","kind":"station"},"geometry":{"type":"Point","coordinates":[112.42773,34.68633]}},{"type":"Feature","properties":{"id":"node/9894368699","name":"温岭火车站","kind":"station"},"geometry":{"type":"Point","coordinates":[121.32237,28.48197]}},{"type":"Feature","properties":{"id":"node/9570091050","name":"滁州高铁站","kind":"station"},"geometry":{"type":"Point","coordinates":[118.31631,32.20172]}},{"type":"Feature","properties":{"id":"node/9697058311","name":"火车站","kind":"station"},"geometry":{"type":"Point","coordinates":[120.57719,30.01574]}},{"type":"Feature","properties":{"id":"node/9189809827","name":"磁浮高铁站","kind":"station"},"geometry":{"type":"Point","coordinates":[113.06151,28.15183]}},{"type":"Feature","properties":{"id":"node/9521844139","name":"福州火车站","kind":"station"},"geometry":{"type":"Point","coordinates":[119.31283,26.11241]}},{"type":"Feature","properties":{"id":"node/8253269145","name":"红岛火车站","kind":"station"},"geometry":{"type":"Point","coordinates":[120.18617,36.24803]}},{"type":"Feature","properties":{"id":"node/9664752039","name":"胶州火车站","kind":"station"},"geometry":{"type":"Point","coordinates":[119.99421,36.29706]}},{"type":"Feature","properties":{"id":"node/9370052138","name":"芜湖火车站","kind":"station"},"geometry":{"type":"Point","coordinates":[118.38938,31.35024]}},{"type":"Feature","properties":{"id":"node/4596174551","name":"苏州园区火车站","kind":"station"},"geometry":{"type":"Point","coordinates":[120.7054,31.34485]}},{"type":"Feature","properties":{"id":"node/7087071833","name":"苏州新区火车站","kind":"station"},"geometry":{"type":"Point","coordinates":[120.5213,31.37442]}},{"type":"Feature","properties":{"id":"node/5218876253","name":"苏州火车站","kind":"station"},"geometry":{"type":"Point","coordinates":[120.60643,31.33291]}},{"type":"Feature","properties":{"id":"node/6182217379","name":"董家口火车站","kind":"station"},"geometry":{"type":"Point","coordinates":[119.71053,35.67554]}},{"type":"Feature","properties":{"id":"node/7942711900","name":"虎门火车站","kind":"station"},"geometry":{"type":"Point","coordinates":[113.66657,22.86226]}},{"type":"Feature","properties":{"id":"node/8913314752","name":"西站","kind":"station"},"geometry":{"type":"Point","coordinates":[117.15851,39.15527]}},{"type":"Feature","properties":{"id":"node/11434697392","name":"贵阳火车站","kind":"station"},"geometry":{"type":"Point","coordinates":[106.69978,26.56103]}},{"type":"Feature","properties":{"id":"node/11232456260","name":"郑州火车站","kind":"station"},"geometry":{"type":"Point","coordinates":[113.64928,34.74761]}},{"type":"Feature","properties":{"id":"node/4221293655","name":"银光火车站","kind":"station"},"geometry":{"type":"Point","coordinates":[104.20875,36.53156]}},{"type":"Feature","properties":{"id":"node/7664047550","name":"长沙火车站","kind":"station"},"geometry":{"type":"Point","coordinates":[113.00542,28.19744]}},{"type":"Feature","properties":{"id":"node/7860703075","name":"黄村火车站","kind":"station"},"geometry":{"type":"Point","coordinates":[116.32665,39.7215]}},{"type":"Feature","properties":{"id":"node/13545205827","name":"龙泉驿火车站","kind":"station"},"geometry":{"type":"Point","coordinates":[104.19412,30.59772]}},{"type":"Feature","properties":{"id":"node/9365183726","name":"龙门高铁站","kind":"station"},"geometry":{"type":"Point","coordinates":[112.4506,34.59534]}},{"type":"Feature","properties":{"id":"node/8270403737","name":"一中南","kind":"station"},"geometry":{"type":"Point","coordinates":[117.27475,34.22085]}},{"type":"Feature","properties":{"id":"node/9381954260","name":"一大会址·黄陂南路","kind":"station"},"geometry":{"type":"Point","coordinates":[121.46796,31.22566]}},{"type":"Feature","properties":{"id":"node/9856077151","name":"一师范西校区","kind":"station"},"geometry":{"type":"Point","coordinates":[112.85937,28.19639]}},{"type":"Feature","properties":{"id":"node/7082028652","name":"一面坡北","kind":"station"},"geometry":{"type":"Point","coordinates":[128.08044,45.08371]}},{"type":"Feature","properties":{"id":"node/2227410611","name":"丁公路北","kind":"station"},"geometry":{"type":"Point","coordinates":[115.90869,28.67724]}},{"type":"Feature","properties":{"id":"node/2375669720","name":"丁公路南","kind":"station"},"geometry":{"type":"Point","coordinates":[115.90613,28.66754]}},{"type":"Feature","properties":{"id":"node/10566785117","name":"丁家庄南","kind":"station"},"geometry":{"type":"Point","coordinates":[118.85496,32.10977]}},{"type":"Feature","properties":{"id":"node/9532243466","name":"七台河西","kind":"station"},"geometry":{"type":"Point","coordinates":[130.77385,45.74232]}},{"type":"Feature","properties":{"id":"node/9404103829","name":"万东路","kind":"station"},"geometry":{"type":"Point","coordinates":[117.26172,39.11779]}},{"type":"Feature","properties":{"id":"node/4692536654","name":"万全西","kind":"station"},"geometry":{"type":"Point","coordinates":[114.47712,40.78374]}},{"type":"Feature","properties":{"id":"node/9276824807","name":"万家码头南","kind":"station"},"geometry":{"type":"Point","coordinates":[117.38124,38.81971]}},{"type":"Feature","properties":{"id":"node/10312280489","name":"万寿南路","kind":"station"},"geometry":{"type":"Point","coordinates":[109.00983,34.25256]}},{"type":"Feature","properties":{"id":"node/3500359221","name":"万州北","kind":"station"},"geometry":{"type":"Point","coordinates":[108.36214,30.86558]}},{"type":"Feature","properties":{"id":"node/4999776321","name":"万州西","kind":"station"},"geometry":{"type":"Point","coordinates":[108.33864,30.81993]}},{"type":"Feature","properties":{"id":"node/4071020924","name":"万水泉南","kind":"station"},"geometry":{"type":"Point","coordinates":[109.89105,40.5775]}},{"type":"Feature","properties":{"id":"node/8059209405","name":"万盛东","kind":"station"},"geometry":{"type":"Point","coordinates":[106.93252,28.94575]}},{"type":"Feature","properties":{"id":"node/8062536481","name":"万盛南","kind":"station"},"geometry":{"type":"Point","coordinates":[106.90509,28.94912]}},{"type":"Feature","properties":{"id":"node/6930098570","name":"万盛西","kind":"station"},"geometry":{"type":"Point","coordinates":[116.62671,39.86244]}},{"type":"Feature","properties":{"id":"node/11228880311","name":"丈八北路","kind":"station"},"geometry":{"type":"Point","coordinates":[108.8685,34.23903]}},{"type":"Feature","properties":{"id":"node/4037619764","name":"三交东","kind":"station"},"geometry":{"type":"Point","coordinates":[111.01523,37.7721]}},{"type":"Feature","properties":{"id":"node/7781469281","name":"三元西","kind":"station"},"geometry":{"type":"Point","coordinates":[117.38001,26.17655]}},{"type":"Feature","properties":{"id":"node/3589687255","name":"三北羊场","kind":"station"},"geometry":{"type":"Point","coordinates":[107.30443,39.25524]}},{"type":"Feature","properties":{"id":"node/9938215058","name":"三十埠东","kind":"station"},"geometry":{"type":"Point","coordinates":[117.41412,31.87379]}},{"type":"Feature","properties":{"id":"node/9016809537","name":"三山新城北","kind":"station"},"geometry":{"type":"Point","coordinates":[113.22941,23.02579]}},{"type":"Feature","properties":{"id":"node/9032316970","name":"三山新城南","kind":"station"},"geometry":{"type":"Point","coordinates":[113.22895,23.01082]}},{"type":"Feature","properties":{"id":"node/4676361146","name":"三工北","kind":"station"},"geometry":{"type":"Point","coordinates":[87.55957,43.92]}},{"type":"Feature","properties":{"id":"node/4676361144","name":"三工南","kind":"station"},"geometry":{"type":"Point","coordinates":[87.56482,43.91083]}},{"type":"Feature","properties":{"id":"node/4665378516","name":"三明东","kind":"station"},"geometry":{"type":"Point","coordinates":[117.63662,26.28774]}},{"type":"Feature","properties":{"id":"node/2501318815","name":"三明北","kind":"station"},"geometry":{"type":"Point","coordinates":[117.8018,26.3789]}},{"type":"Feature","properties":{"id":"node/2448270609","name":"三林东","kind":"station"},"geometry":{"type":"Point","coordinates":[121.51888,31.14864]}},{"type":"Feature","properties":{"id":"node/12042988435","name":"三林南","kind":"station"},"geometry":{"type":"Point","coordinates":[121.48202,31.12801]}},{"type":"Feature","properties":{"id":"node/13444650660","name":"三林南（在建）","kind":"station"},"geometry":{"type":"Point","coordinates":[121.48378,31.12842]}},{"type":"Feature","properties":{"id":"node/9195330012","name":"三水北","kind":"station"},"geometry":{"type":"Point","coordinates":[112.91355,23.1874]}},{"type":"Feature","properties":{"id":"node/9527375843","name":"三水南","kind":"station"},"geometry":{"type":"Point","coordinates":[112.86599,23.11588]}},{"type":"Feature","properties":{"id":"node/3141113475","name":"三水西","kind":"station"},"geometry":{"type":"Point","coordinates":[112.8497,23.18822]}},{"type":"Feature","properties":{"id":"node/8059209390","name":"三江东","kind":"station"},"geometry":{"type":"Point","coordinates":[106.73718,28.93681]}},{"type":"Feature","properties":{"id":"node/9527375842","name":"三江南","kind":"station"},"geometry":{"type":"Point","coordinates":[109.57157,25.7287]}},{"type":"Feature","properties":{"id":"node/11581097078","name":"三灶东","kind":"station"},"geometry":{"type":"Point","coordinates":[113.3983,22.04257]}},{"type":"Feature","properties":{"id":"node/5128985378","name":"三门峡南","kind":"station"},"geometry":{"type":"Point","coordinates":[111.15422,34.74959]}},{"type":"Feature","properties":{"id":"node/4721424792","name":"三门峡西","kind":"station"},"geometry":{"type":"Point","coordinates":[111.07474,34.68792]}},{"type":"Feature","properties":{"id":"node/11143191832","name":"上东路","kind":"station"},"geometry":{"type":"Point","coordinates":[120.66787,27.75842]}},{"type":"Feature","properties":{"id":"node/5306536046","name":"上南路","kind":"station"},"geometry":{"type":"Point","coordinates":[121.50199,31.15119]}},{"type":"Feature","properties":{"id":"node/4017665839","name":"上板城南","kind":"station"},"geometry":{"type":"Point","coordinates":[118.03987,40.823]}},{"type":"Feature","properties":{"id":"node/10983613119","name":"上海东","kind":"station"},"geometry":{"type":"Point","coordinates":[121.7806,31.12227]}},{"type":"Feature","properties":{"id":"node/12222691497","name":"上海东站(在建）","kind":"station"},"geometry":{"type":"Point","coordinates":[121.7777,31.12164]}},{"type":"Feature","properties":{"id":"node/7171261760","name":"上海南","kind":"station"},"geometry":{"type":"Point","coordinates":[121.42488,31.15501]}},{"type":"Feature","properties":{"id":"node/4610023440","name":"上海虹桥","kind":"station"},"geometry":{"type":"Point","coordinates":[121.3162,31.19598]}},{"type":"Feature","properties":{"id":"node/7169128140","name":"上海西","kind":"station"},"geometry":{"type":"Point","coordinates":[121.39816,31.2646]}},{"type":"Feature","properties":{"id":"node/13387798996","name":"上秦淮西","kind":"station"},"geometry":{"type":"Point","coordinates":[118.83129,31.85209]}},{"type":"Feature","properties":{"id":"node/11536193005","name":"上虞南","kind":"station"},"geometry":{"type":"Point","coordinates":[120.79141,29.98163]}},{"type":"Feature","properties":{"id":"node/10937090989","name":"上西园","kind":"station"},"geometry":{"type":"Point","coordinates":[103.78988,36.05799]}},{"type":"Feature","properties":{"id":"node/3193144359","name":"上西铺","kind":"station"},"geometry":{"type":"Point","coordinates":[104.46876,25.67285]}},{"type":"Feature","properties":{"id":"node/2456850535","name":"上高南","kind":"station"},"geometry":{"type":"Point","coordinates":[114.94197,28.21897]}},{"type":"Feature","properties":{"id":"node/6308158129","name":"下南泉","kind":"station"},"geometry":{"type":"Point","coordinates":[88.42891,44.15465]}},{"type":"Feature","properties":{"id":"node/9442045045","name":"下沙西","kind":"station"},"geometry":{"type":"Point","coordinates":[120.30789,30.31225]}},{"type":"Feature","properties":{"id":"node/4759822044","name":"下花园北","kind":"station"},"geometry":{"type":"Point","coordinates":[115.2953,40.50211]}},{"type":"Feature","properties":{"id":"node/7369154307","name":"下马崖北 شىمالىي باي","kind":"station"},"geometry":{"type":"Point","coordinates":[95.32686,43.23493]}},{"type":"Feature","properties":{"id":"node/11434697480","name":"下麦西","kind":"station"},"geometry":{"type":"Point","coordinates":[106.57649,26.65878]}},{"type":"Feature","properties":{"id":"node/5230059143","name":"丙谷东","kind":"station"},"geometry":{"type":"Point","coordinates":[102.08122,26.8062]}},{"type":"Feature","properties":{"id":"node/3634890884","name":"东七里","kind":"station"},"geometry":{"type":"Point","coordinates":[117.33257,31.86977]}},{"type":"Feature","properties":{"id":"node/9169258492","name":"东三家","kind":"station"},"geometry":{"type":"Point","coordinates":[120.43145,41.61532]}},{"type":"Feature","properties":{"id":"node/9462758681","name":"东三岔","kind":"station"},"geometry":{"type":"Point","coordinates":[109.21648,34.37827]}},{"type":"Feature","properties":{"id":"node/7369194524","name":"东三矿","kind":"station"},"geometry":{"type":"Point","coordinates":[95.15769,43.75782]}},{"type":"Feature","properties":{"id":"node/12985462293","name":"东中街","kind":"station"},"geometry":{"type":"Point","coordinates":[123.46521,41.80043]}},{"type":"Feature","properties":{"id":"node/11425620679","name":"东丽三经路","kind":"station"},"geometry":{"type":"Point","coordinates":[117.35201,39.06929]}},{"type":"Feature","properties":{"id":"node/11425620680","name":"东丽六经路","kind":"station"},"geometry":{"type":"Point","coordinates":[117.3677,39.06412]}},{"type":"Feature","properties":{"id":"node/11423176511","name":"东丽文体中心","kind":"station"},"geometry":{"type":"Point","coordinates":[117.32241,39.07798]}},{"type":"Feature","properties":{"id":"node/6510193806","name":"东乌旗","kind":"station"},"geometry":{"type":"Point","coordinates":[116.86036,45.53294]}},{"type":"Feature","properties":{"id":"node/10291443279","name":"东乐路","kind":"station"},"geometry":{"type":"Point","coordinates":[113.25938,22.83775]}},{"type":"Feature","properties":{"id":"node/3634890684","name":"东二十埠","kind":"station"},"geometry":{"type":"Point","coordinates":[117.36144,31.8702]}},{"type":"Feature","properties":{"id":"node/8617328982","name":"东二环南路","kind":"station"},"geometry":{"type":"Point","coordinates":[114.57219,38.0108]}},{"type":"Feature","properties":{"id":"node/13406974022","name":"东二矿","kind":"station"},"geometry":{"type":"Point","coordinates":[116.16257,44.03087]}},{"type":"Feature","properties":{"id":"node/9129925022","name":"东二道河","kind":"station"},"geometry":{"type":"Point","coordinates":[134.11407,47.68415]}},{"type":"Feature","properties":{"id":"node/3634890885","name":"东五里井","kind":"station"},"geometry":{"type":"Point","coordinates":[117.31917,31.86973]}},{"type":"Feature","properties":{"id":"node/1604842611","name":"东京城","kind":"station"},"geometry":{"type":"Point","coordinates":[129.21851,44.1157]}},{"type":"Feature","properties":{"id":"node/12451270630","name":"东仪路","kind":"station"},"geometry":{"type":"Point","coordinates":[108.92362,34.20013]}},{"type":"Feature","properties":{"id":"node/9129925036","name":"东佳木斯","kind":"station"},"geometry":{"type":"Point","coordinates":[130.43409,46.78118]}},{"type":"Feature","properties":{"id":"node/13506321586","name":"东保卫","kind":"station"},"geometry":{"type":"Point","coordinates":[131.51814,46.5003]}},{"type":"Feature","properties":{"id":"node/8392781271","name":"东元庆","kind":"station"},"geometry":{"type":"Point","coordinates":[112.93378,35.57158]}},{"type":"Feature","properties":{"id":"node/13413240437","name":"东兆余","kind":"station"},"geometry":{"type":"Point","coordinates":[108.99157,34.15687]}},{"type":"Feature","properties":{"id":"node/3949950007","name":"东光北","kind":"station"},"geometry":{"type":"Point","coordinates":[116.66989,37.99543]}},{"type":"Feature","properties":{"id":"node/13461612554","name":"东六道","kind":"station"},"geometry":{"type":"Point","coordinates":[117.41356,39.15278]}},{"type":"Feature","properties":{"id":"node/5306464705","name":"东兰路","kind":"station"},"geometry":{"type":"Point","coordinates":[121.38715,31.15771]}},{"type":"Feature","properties":{"id":"node/12519624558","name":"东关屯","kind":"station"},"geometry":{"type":"Point","coordinates":[123.34648,42.71162]}},{"type":"Feature","properties":{"id":"node/11060802472","name":"东兴路","kind":"station"},"geometry":{"type":"Point","coordinates":[117.23599,39.1027]}},{"type":"Feature","properties":{"id":"node/6898474858","name":"东兴路西","kind":"station"},"geometry":{"type":"Point","coordinates":[120.66276,31.28117]}},{"type":"Feature","properties":{"id":"node/3365112220","name":"东冲铺","kind":"station"},"geometry":{"type":"Point","coordinates":[113.37004,27.73652]}},{"type":"Feature","properties":{"id":"node/3671619716","name":"东凌井","kind":"station"},"geometry":{"type":"Point","coordinates":[112.92671,38.03805]}},{"type":"Feature","properties":{"id":"node/8627304262","name":"东北农业大学","kind":"station"},"geometry":{"type":"Point","coordinates":[126.71795,45.72767]}},{"type":"Feature","properties":{"id":"node/7484856286","name":"东北大马路","kind":"station"},"geometry":{"type":"Point","coordinates":[123.47574,41.81824]}},{"type":"Feature","properties":{"id":"node/6520150653","name":"东北师大","kind":"station"},"geometry":{"type":"Point","coordinates":[125.31859,43.86168]}},{"type":"Feature","properties":{"id":"node/13410014897","name":"东北旺","kind":"station"},"geometry":{"type":"Point","coordinates":[116.28872,40.05183]}},{"type":"Feature","properties":{"id":"node/8241891121","name":"东十里铺","kind":"station"},"geometry":{"type":"Point","coordinates":[113.71982,34.74801]}},{"type":"Feature","properties":{"id":"node/8191141376","name":"东升坝","kind":"station"},"geometry":{"type":"Point","coordinates":[106.67835,28.88686]}},{"type":"Feature","properties":{"id":"node/13595801222","name":"东华街","kind":"station"},"geometry":{"type":"Point","coordinates":[119.88919,29.20149]}},{"type":"Feature","properties":{"id":"node/8670894303","name":"东南山","kind":"station"},"geometry":{"type":"Point","coordinates":[121.4527,38.98617]}},{"type":"Feature","properties":{"id":"node/1720956464","name":"东南营子","kind":"station"},"geometry":{"type":"Point","coordinates":[119.13778,42.30031]}},{"type":"Feature","properties":{"id":"node/9404097353","name":"东南角","kind":"station"},"geometry":{"type":"Point","coordinates":[117.18418,39.13587]}},{"type":"Feature","properties":{"id":"node/9121569871","name":"东双合屯","kind":"station"},"geometry":{"type":"Point","coordinates":[120.91112,46.17914]}},{"type":"Feature","properties":{"id":"node/8024938629","name":"东双桥","kind":"station"},"geometry":{"type":"Point","coordinates":[113.58532,34.85437]}},{"type":"Feature","properties":{"id":"node/3612292346","name":"东双河","kind":"station"},"geometry":{"type":"Point","coordinates":[114.09029,32.03406]}},{"type":"Feature","properties":{"id":"node/7369008114","name":"东台地","kind":"station"},"geometry":{"type":"Point","coordinates":[91.37386,40.97353]}},{"type":"Feature","properties":{"id":"node/6494737890","name":"东吴大道","kind":"station"},"geometry":{"type":"Point","coordinates":[114.12294,30.62725]}},{"type":"Feature","properties":{"id":"node/9282598412","name":"东周窑","kind":"station"},"geometry":{"type":"Point","coordinates":[112.8539,40.02466]}},{"type":"Feature","properties":{"id":"node/6497754454","name":"东四十条","kind":"station"},"geometry":{"type":"Point","coordinates":[116.42801,39.93229]}},{"type":"Feature","properties":{"id":"node/7369194525","name":"东四矿","kind":"station"},"geometry":{"type":"Point","coordinates":[95.37148,43.74707]}},{"type":"Feature","properties":{"id":"node/10671369627","name":"东坝北","kind":"station"},"geometry":{"type":"Point","coordinates":[116.55197,39.9746]}},{"type":"Feature","properties":{"id":"node/12417931579","name":"东坝南","kind":"station"},"geometry":{"type":"Point","coordinates":[116.54112,39.95079]}},{"type":"Feature","properties":{"id":"node/12423757161","name":"东坝西","kind":"station"},"geometry":{"type":"Point","coordinates":[116.52836,39.97334]}},{"type":"Feature","properties":{"id":"node/4079187142","name":"东坡路","kind":"station"},"geometry":{"type":"Point","coordinates":[104.00593,30.66338]}},{"type":"Feature","properties":{"id":"node/9196767921","name":"东城南","kind":"station"},"geometry":{"type":"Point","coordinates":[113.76993,22.99021]}},{"type":"Feature","properties":{"id":"node/5428312459","name":"东夏园","kind":"station"},"geometry":{"type":"Point","coordinates":[116.72724,39.90221]}},{"type":"Feature","properties":{"id":"node/9164898223","name":"东大九龙湖校区","kind":"station"},"geometry":{"type":"Point","coordinates":[118.82522,31.89797]}},{"type":"Feature","properties":{"id":"node/8428724689","name":"东大坝","kind":"station"},"geometry":{"type":"Point","coordinates":[117.81128,41.6568]}},{"type":"Feature","properties":{"id":"node/9123967454","name":"东大屯","kind":"station"},"geometry":{"type":"Point","coordinates":[120.64018,41.2608]}},{"type":"Feature","properties":{"id":"node/9164878197","name":"东大成贤学院","kind":"station"},"geometry":{"type":"Point","coordinates":[118.70233,32.15849]}},{"type":"Feature","properties":{"id":"node/7896877680","name":"东大桥","kind":"station"},"geometry":{"type":"Point","coordinates":[116.44556,39.92148]}},{"type":"Feature","properties":{"id":"node/12949048249","name":"东大营街","kind":"station"},"geometry":{"type":"Point","coordinates":[123.53938,41.81613]}},{"type":"Feature","properties":{"id":"node/8241870357","name":"东大街","kind":"station"},"geometry":{"type":"Point","coordinates":[113.676,34.75013]}},{"type":"Feature","properties":{"id":"node/6594652091","name":"东大路","kind":"station"},"geometry":{"type":"Point","coordinates":[104.10964,30.63604]}},{"type":"Feature","properties":{"id":"node/5144292957","name":"东安东","kind":"station"},"geometry":{"type":"Point","coordinates":[111.33192,26.38107]}},{"type":"Feature","properties":{"id":"node/9169253678","name":"东官营","kind":"station"},"geometry":{"type":"Point","coordinates":[120.62378,41.91886]}},{"type":"Feature","properties":{"id":"node/11289610902","name":"东尖坨","kind":"station"},"geometry":{"type":"Point","coordinates":[118.19578,39.43908]}},{"type":"Feature","properties":{"id":"node/12925939824","name":"东山县","kind":"station"},"geometry":{"type":"Point","coordinates":[117.35381,23.74344]}},{"type":"Feature","properties":{"id":"node/9396731718","name":"东山口","kind":"station"},"geometry":{"type":"Point","coordinates":[113.29016,23.12649]}},{"type":"Feature","properties":{"id":"node/9776763660","name":"东山埔","kind":"station"},"geometry":{"type":"Point","coordinates":[117.9857,27.59723]}},{"type":"Feature","properties":{"id":"node/11816124550","name":"东山漾","kind":"station"},"geometry":{"type":"Point","coordinates":[120.09368,30.42755]}},{"type":"Feature","properties":{"id":"node/10772026071","name":"东山路","kind":"station"},"geometry":{"type":"Point","coordinates":[121.73227,39.09114]}},{"type":"Feature","properties":{"id":"node/13057948212","name":"东山香樟园","kind":"station"},"geometry":{"type":"Point","coordinates":[118.83425,31.97383]}},{"type":"Feature","properties":{"id":"node/13673540499","name":"东岳路（在建）","kind":"station"},"geometry":{"type":"Point","coordinates":[119.97448,35.8882]}},{"type":"Feature","properties":{"id":"node/12455440608","name":"东巴谷","kind":"station"},"geometry":{"type":"Point","coordinates":[100.25837,27.01061]}},{"type":"Feature","properties":{"id":"node/8556305258","name":"东广场","kind":"station"},"geometry":{"type":"Point","coordinates":[125.33264,43.90662]}},{"type":"Feature","properties":{"id":"node/7473462474","name":"东庙沟","kind":"station"},"geometry":{"type":"Point","coordinates":[94.57349,42.5279]}},{"type":"Feature","properties":{"id":"node/8407297387","name":"东张马","kind":"station"},"geometry":{"type":"Point","coordinates":[114.28486,37.18078]}},{"type":"Feature","properties":{"id":"node/7098893468","name":"东影路","kind":"station"},"geometry":{"type":"Point","coordinates":[111.70187,40.82955]}},{"type":"Feature","properties":{"id":"node/9517242680","name":"东徐庄乘降所","kind":"station"},"geometry":{"type":"Point","coordinates":[119.56669,40.05437]}},{"type":"Feature","properties":{"id":"node/8413859638","name":"东戴河","kind":"station"},"geometry":{"type":"Point","coordinates":[119.84086,40.04095]}},{"type":"Feature","properties":{"id":"node/4596174544","name":"东振路","kind":"station"},"geometry":{"type":"Point","coordinates":[120.67203,31.2907]}},{"type":"Feature","properties":{"id":"node/9852293351","name":"东新园","kind":"station"},"geometry":{"type":"Point","coordinates":[120.17116,30.31058]}},{"type":"Feature","properties":{"id":"node/13091337308","name":"东新路","kind":"station"},"geometry":{"type":"Point","coordinates":[125.35952,43.88979]}},{"type":"Feature","properties":{"id":"node/5469475122","name":"东方之门","kind":"station"},"geometry":{"type":"Point","coordinates":[120.67597,31.31926]}},{"type":"Feature","properties":{"id":"node/5313309165","name":"东方体育中心","kind":"station"},"geometry":{"type":"Point","coordinates":[121.47603,31.15545]}},{"type":"Feature","properties":{"id":"node/13444650658","name":"东方体育中心（在建）","kind":"station"},"geometry":{"type":"Point","coordinates":[121.47671,31.15825]}},{"type":"Feature","properties":{"id":"node/6520538374","name":"东方广场","kind":"station"},"geometry":{"type":"Point","coordinates":[125.41949,43.87933]}},{"type":"Feature","properties":{"id":"node/3693604532","name":"东方红","kind":"station"},"geometry":{"type":"Point","coordinates":[133.07615,46.19757]}},{"type":"Feature","properties":{"id":"node/6563941854","name":"东方红广场","kind":"station"},"geometry":{"type":"Point","coordinates":[103.83952,36.05356]}},{"type":"Feature","properties":{"id":"node/5308115519","name":"东方绿舟","kind":"station"},"geometry":{"type":"Point","coordinates":[121.0149,31.1005]}},{"type":"Feature","properties":{"id":"node/8670894912","name":"东方路","kind":"station"},"geometry":{"type":"Point","coordinates":[121.61426,38.96756]}},{"type":"Feature","properties":{"id":"node/9565762623","name":"东明县","kind":"station"},"geometry":{"type":"Point","coordinates":[115.08635,35.26863]}},{"type":"Feature","properties":{"id":"node/1720956461","name":"东明村","kind":"station"},"geometry":{"type":"Point","coordinates":[121.22271,43.27114]}},{"type":"Feature","properties":{"id":"node/5306536049","name":"东明路","kind":"station"},"geometry":{"type":"Point","coordinates":[121.50658,31.1748]}},{"type":"Feature","properties":{"id":"node/5582481722","name":"东晓南","kind":"station"},"geometry":{"type":"Point","coordinates":[113.28878,23.07398]}},{"type":"Feature","properties":{"id":"node/13508721523","name":"东林寺路","kind":"station"},"geometry":{"type":"Point","coordinates":[106.64653,26.66168]}},{"type":"Feature","properties":{"id":"node/6429590430","name":"东林广场","kind":"station"},"geometry":{"type":"Point","coordinates":[120.30369,31.58035]}},{"type":"Feature","properties":{"id":"node/7319313623","name":"东柴山","kind":"station"},"geometry":{"type":"Point","coordinates":[91.41513,37.81814]}},{"type":"Feature","properties":{"id":"node/8375244252","name":"东榆林","kind":"station"},"geometry":{"type":"Point","coordinates":[112.75851,39.43987]}},{"type":"Feature","properties":{"id":"node/11425620669","name":"东江道","kind":"station"},"geometry":{"type":"Point","coordinates":[117.25272,39.06724]}},{"type":"Feature","properties":{"id":"node/9007631027","name":"东沙湖","kind":"station"},"geometry":{"type":"Point","coordinates":[120.75886,31.33973]}},{"type":"Feature","properties":{"id":"node/5171146200","name":"东沙王庄","kind":"station"},"geometry":{"type":"Point","coordinates":[116.94005,36.70586]}},{"type":"Feature","properties":{"id":"node/7905547568","name":"东沟岭","kind":"station"},"geometry":{"type":"Point","coordinates":[108.35081,22.84848]}},{"type":"Feature","properties":{"id":"node/2336082786","name":"东沟门","kind":"station"},"geometry":{"type":"Point","coordinates":[119.07339,40.92025]}},{"type":"Feature","properties":{"id":"node/9512571940","name":"东河南","kind":"station"},"geometry":{"type":"Point","coordinates":[114.03958,39.37074]}},{"type":"Feature","properties":{"id":"node/13462469760","name":"东沽路","kind":"station"},"geometry":{"type":"Point","coordinates":[117.40211,39.01107]}},{"type":"Feature","properties":{"id":"node/9242299259","name":"东海县","kind":"station"},"geometry":{"type":"Point","coordinates":[118.76361,34.51681]}}],"meta":{"source":"HOT OSM HDX stations sampled","kind":"station"}}